ION SCV-004             
1 50993U 22002K   26068.68892644  .00006538  00000+0  23198-3 0  9998
2 50993  97.2961 128.2294 0007216   1.6783 358.4480 15.29369331230088
STARLINK-31458          
1 59501U 24071T   26068.14284448 -.00003961  00000+0 -13457-3 0  9994
2 59501  43.0047 342.6879 0000983 249.2821 110.7925 15.27563458108120
